[{"OBJECT_NAME":"KUIPER-00097","OBJECT_ID":"2025-171E","EPOCH":"2026-03-03T12:42:26.290080","MEAN_MOTION":14.79929383,"ECCENTRICITY":2.305e-5,"INCLINATION":51.9016,"RA_OF_ASC_NODE":187.9495,"ARG_OF_PERICENTER":84.217,"MEAN_ANOMALY":275.8819,"EPHEMERIS_TYPE":0,"CLASSIFICATION_TYPE":"U","NORAD_CAT_ID":65136,"ELEMENT_SET_NO":999,"REV_AT_EPOCH":3193,"BSTAR":0.0002506033,"MEAN_MOTION_DOT":1.69e-5,"MEAN_MOTION_DDOT":0},{"OBJECT_NAME":"KUIPER-00098","OBJECT_ID":"2025-171F","EPOCH":"2026-03-03T14:15:48.129120","MEAN_MOTION":14.799526,"ECCENTRICITY":0.00019174,"INCLINATION":51.9007,"RA_OF_ASC_NODE":190.0409,"ARG_OF_PERICENTER":141.334,"MEAN_ANOMALY":218.776,"EPHEMERIS_TYPE":0,"CLASSIFICATION_TYPE":"U","NORAD_CAT_ID":65137,"ELEMENT_SET_NO":999,"REV_AT_EPOCH":3126,"BSTAR":0.00088988822,"MEAN_MOTION_DOT":6.572e-5,"MEAN_MOTION_DDOT":0},{"OBJECT_NAME":"KUIPER-00099","OBJECT_ID":"2025-171G","EPOCH":"2026-03-03T12:06:34.136064","MEAN_MOTION":14.79844415,"ECCENTRICITY":4.93e-5,"INCLINATION":51.9021,"RA_OF_ASC_NODE":180.4292,"ARG_OF_PERICENTER":49.2945,"MEAN_ANOMALY":310.806,"EPHEMERIS_TYPE":0,"CLASSIFICATION_TYPE":"U","NORAD_CAT_ID":65138,"ELEMENT_SET_NO":999,"REV_AT_EPOCH":3204,"BSTAR":0.00086054948,"MEAN_MOTION_DOT":6.332e-5,"MEAN_MOTION_DDOT":0},{"OBJECT_NAME":"KUIPER-00100","OBJECT_ID":"2025-171H","EPOCH":"2026-03-03T14:35:12.776064","MEAN_MOTION":14.79943215,"ECCENTRICITY":5.508e-5,"INCLINATION":51.9026,"RA_OF_ASC_NODE":177.4452,"ARG_OF_PERICENTER":101.901,"MEAN_ANOMALY":258.2014,"EPHEMERIS_TYPE":0,"CLASSIFICATION_TYPE":"U","NORAD_CAT_ID":65139,"ELEMENT_SET_NO":999,"REV_AT_EPOCH":3209,"BSTAR":0.0003046848,"MEAN_MOTION_DOT":2.103e-5,"MEAN_MOTION_DDOT":0},{"OBJECT_NAME":"KUIPER-00102","OBJECT_ID":"2025-171J","EPOCH":"2026-03-03T11:16:47.713152","MEAN_MOTION":14.79963552,"ECCENTRICITY":5.737e-5,"INCLINATION":51.8987,"RA_OF_ASC_NODE":180.5818,"ARG_OF_PERICENTER":89.0574,"MEAN_ANOMALY":271.0454,"EPHEMERIS_TYPE":0,"CLASSIFICATION_TYPE":"U","NORAD_CAT_ID":65140,"ELEMENT_SET_NO":999,"REV_AT_EPOCH":3203,"BSTAR":0.00086779967,"MEAN_MOTION_DOT":6.405e-5,"MEAN_MOTION_DDOT":0},{"OBJECT_NAME":"KUIPER-00103","OBJECT_ID":"2025-171K","EPOCH":"2026-03-03T14:52:49.150848","MEAN_MOTION":14.79980418,"ECCENTRICITY":0.00021935,"INCLINATION":51.8989,"RA_OF_ASC_NODE":197.4104,"ARG_OF_PERICENTER":125.2704,"MEAN_ANOMALY":234.8464,"EPHEMERIS_TYPE":0,"CLASSIFICATION_TYPE":"U","NORAD_CAT_ID":65141,"ELEMENT_SET_NO":999,"REV_AT_EPOCH":3181,"BSTAR":0.00080766705,"MEAN_MOTION_DOT":5.948e-5,"MEAN_MOTION_DDOT":0},{"OBJECT_NAME":"KUIPER-00104","OBJECT_ID":"2025-171L","EPOCH":"2026-03-03T15:12:02.438784","MEAN_MOTION":14.79923084,"ECCENTRICITY":4.827e-5,"INCLINATION":51.9018,"RA_OF_ASC_NODE":184.8111,"ARG_OF_PERICENTER":50.0642,"MEAN_ANOMALY":310.0362,"EPHEMERIS_TYPE":0,"CLASSIFICATION_TYPE":"U","NORAD_CAT_ID":65142,"ELEMENT_SET_NO":999,"REV_AT_EPOCH":3199,"BSTAR":-0.001891642,"MEAN_MOTION_DOT":-0.00014607,"MEAN_MOTION_DDOT":0},{"OBJECT_NAME":"KUIPER-00105","OBJECT_ID":"2025-171M","EPOCH":"2026-03-03T14:11:20.345280","MEAN_MOTION":14.80000236,"ECCENTRICITY":6.567e-5,"INCLINATION":51.9001,"RA_OF_ASC_NODE":192.6167,"ARG_OF_PERICENTER":102.8306,"MEAN_ANOMALY":257.273,"EPHEMERIS_TYPE":0,"CLASSIFICATION_TYPE":"U","NORAD_CAT_ID":65143,"ELEMENT_SET_NO":999,"REV_AT_EPOCH":3188,"BSTAR":-0.0040923528,"MEAN_MOTION_DOT":-0.00031323,"MEAN_MOTION_DDOT":0},{"OBJECT_NAME":"KUIPER-00106","OBJECT_ID":"2025-171N","EPOCH":"2026-03-03T15:15:35.525376","MEAN_MOTION":14.97134501,"ECCENTRICITY":0.00078862,"INCLINATION":51.8949,"RA_OF_ASC_NODE":182.481,"ARG_OF_PERICENTER":80.1337,"MEAN_ANOMALY":280.0523,"EPHEMERIS_TYPE":0,"CLASSIFICATION_TYPE":"U","NORAD_CAT_ID":65144,"ELEMENT_SET_NO":999,"REV_AT_EPOCH":3203,"BSTAR":0.00082768845,"MEAN_MOTION_DOT":9.419e-5,"MEAN_MOTION_DDOT":0},{"OBJECT_NAME":"KUIPER-00107","OBJECT_ID":"2025-171P","EPOCH":"2026-03-03T14:39:14.007456","MEAN_MOTION":14.79970795,"ECCENTRICITY":2.792e-5,"INCLINATION":51.8999,"RA_OF_ASC_NODE":174.9742,"ARG_OF_PERICENTER":38.4941,"MEAN_ANOMALY":321.6042,"EPHEMERIS_TYPE":0,"CLASSIFICATION_TYPE":"U","NORAD_CAT_ID":65145,"ELEMENT_SET_NO":999,"REV_AT_EPOCH":3213,"BSTAR":0.000975717,"MEAN_MOTION_DOT":7.232e-5,"MEAN_MOTION_DDOT":0},{"OBJECT_NAME":"KUIPER-00108","OBJECT_ID":"2025-171Q","EPOCH":"2026-03-03T13:31:04.163232","MEAN_MOTION":14.79950027,"ECCENTRICITY":0.00015788,"INCLINATION":51.9038,"RA_OF_ASC_NODE":187.6962,"ARG_OF_PERICENTER":159.4022,"MEAN_ANOMALY":200.7004,"EPHEMERIS_TYPE":0,"CLASSIFICATION_TYPE":"U","NORAD_CAT_ID":65146,"ELEMENT_SET_NO":999,"REV_AT_EPOCH":3195,"BSTAR":0.00037671626,"MEAN_MOTION_DOT":2.653e-5,"MEAN_MOTION_DDOT":0},{"OBJECT_NAME":"KUIPER-00109","OBJECT_ID":"2025-171R","EPOCH":"2026-03-03T12:50:12.138144","MEAN_MOTION":14.79937797,"ECCENTRICITY":8.08e-5,"INCLINATION":51.902,"RA_OF_ASC_NODE":182.7654,"ARG_OF_PERICENTER":54.0172,"MEAN_ANOMALY":306.0865,"EPHEMERIS_TYPE":0,"CLASSIFICATION_TYPE":"U","NORAD_CAT_ID":65147,"ELEMENT_SET_NO":999,"REV_AT_EPOCH":3201,"BSTAR":0.00031350449,"MEAN_MOTION_DOT":2.17e-5,"MEAN_MOTION_DDOT":0},{"OBJECT_NAME":"KUIPER-00110","OBJECT_ID":"2025-171S","EPOCH":"2026-03-03T13:20:57.369984","MEAN_MOTION":14.79905078,"ECCENTRICITY":0.00019269,"INCLINATION":51.9007,"RA_OF_ASC_NODE":195.2705,"ARG_OF_PERICENTER":171.9536,"MEAN_ANOMALY":188.1458,"EPHEMERIS_TYPE":0,"CLASSIFICATION_TYPE":"U","NORAD_CAT_ID":65148,"ELEMENT_SET_NO":999,"REV_AT_EPOCH":3183,"BSTAR":0.00091354074,"MEAN_MOTION_DOT":6.745e-5,"MEAN_MOTION_DDOT":0},{"OBJECT_NAME":"KUIPER-00111","OBJECT_ID":"2025-171T","EPOCH":"2026-03-03T09:08:21.363648","MEAN_MOTION":14.79993417,"ECCENTRICITY":0.00019488,"INCLINATION":51.8977,"RA_OF_ASC_NODE":200.9462,"ARG_OF_PERICENTER":136.3959,"MEAN_ANOMALY":223.7157,"EPHEMERIS_TYPE":0,"CLASSIFICATION_TYPE":"U","NORAD_CAT_ID":65149,"ELEMENT_SET_NO":999,"REV_AT_EPOCH":3174,"BSTAR":0.00080281757,"MEAN_MOTION_DOT":5.913e-5,"MEAN_MOTION_DDOT":0},{"OBJECT_NAME":"KUIPER-00112","OBJECT_ID":"2025-171U","EPOCH":"2026-03-03T15:16:11.366688","MEAN_MOTION":14.79975019,"ECCENTRICITY":2.91e-5,"INCLINATION":51.9023,"RA_OF_ASC_NODE":182.3732,"ARG_OF_PERICENTER":93.8557,"MEAN_ANOMALY":266.2439,"EPHEMERIS_TYPE":0,"CLASSIFICATION_TYPE":"U","NORAD_CAT_ID":65150,"ELEMENT_SET_NO":999,"REV_AT_EPOCH":3202,"BSTAR":0.00095383289,"MEAN_MOTION_DOT":7.065e-5,"MEAN_MOTION_DDOT":0},{"OBJECT_NAME":"KUIPER-00114","OBJECT_ID":"2025-171V","EPOCH":"2026-03-03T09:04:40.066464","MEAN_MOTION":14.79940652,"ECCENTRICITY":0.00014008,"INCLINATION":51.9005,"RA_OF_ASC_NODE":203.5132,"ARG_OF_PERICENTER":129.0123,"MEAN_ANOMALY":231.0964,"EPHEMERIS_TYPE":0,"CLASSIFICATION_TYPE":"U","NORAD_CAT_ID":65151,"ELEMENT_SET_NO":999,"REV_AT_EPOCH":3170,"BSTAR":0.00079103078,"MEAN_MOTION_DOT":5.815e-5,"MEAN_MOTION_DDOT":0}]
