KUIPER-00097            
1 65136U 25171E   26062.52947095  .00001690  00000+0  25060-3 0  9995
2 65136  51.9016 187.9495 0000230  84.2170 275.8819 14.79929383 31936
KUIPER-00098            
1 65137U 25171F   26062.59430705  .00006572  00000+0  88989-3 0  9991
2 65137  51.9007 190.0409 0001917 141.3340 218.7760 14.79952600 31269
KUIPER-00099            
1 65138U 25171G   26062.50456176  .00006332  00000+0  86055-3 0  9999
2 65138  51.9021 180.4292 0000493  49.2945 310.8060 14.79844415 32042
KUIPER-00100            
1 65139U 25171H   26062.60778676  .00002103  00000+0  30468-3 0  9992
2 65139  51.9026 177.4452 0000550 101.9010 258.2014 14.79943215 32092
KUIPER-00102            
1 65140U 25171J   26062.46999668  .00006405  00000+0  86780-3 0  9991
2 65140  51.8987 180.5818 0000573  89.0574 271.0454 14.79963552 32037
KUIPER-00103            
1 65141U 25171K   26062.62001332  .00005948  00000+0  80767-3 0  9992
2 65141  51.8989 197.4104 0002193 125.2704 234.8464 14.79980418 31816
KUIPER-00104            
1 65142U 25171L   26062.63336156 -.00014607  00000+0 -18916-2 0  9999
2 65142  51.9018 184.8111 0000482  50.0642 310.0362 14.79923084 31993
KUIPER-00105            
1 65143U 25171M   26062.59120770 -.00031323  00000+0 -40924-2 0  9996
2 65143  51.9001 192.6167 0000656 102.8306 257.2730 14.80000236 31886
KUIPER-00106            
1 65144U 25171N   26062.63582784  .00009419  00000+0  82769-3 0  9992
2 65144  51.8949 182.4810 0007886  80.1337 280.0523 14.97134501 32036
KUIPER-00107            
1 65145U 25171P   26062.61057879  .00007232  00000+0  97572-3 0  9992
2 65145  51.8999 174.9742 0000279  38.4941 321.6042 14.79970795 32130
KUIPER-00108            
1 65146U 25171Q   26062.56324263  .00002653  00000+0  37672-3 0  9998
2 65146  51.9038 187.6962 0001578 159.4022 200.7004 14.79950027 31958
KUIPER-00109            
1 65147U 25171R   26062.53486271  .00002170  00000+0  31350-3 0  9995
2 65147  51.9020 182.7654 0000808  54.0172 306.0865 14.79937797 32017
KUIPER-00110            
1 65148U 25171S   26062.55621956  .00006745  00000+0  91354-3 0  9991
2 65148  51.9007 195.2705 0001926 171.9536 188.1458 14.79905078 31837
KUIPER-00111            
1 65149U 25171T   26062.38080282  .00005913  00000+0  80282-3 0  9998
2 65149  51.8977 200.9462 0001948 136.3959 223.7157 14.79993417 31741
KUIPER-00112            
1 65150U 25171U   26062.63624267  .00007065  00000+0  95383-3 0  9993
2 65150  51.9023 182.3732 0000291  93.8557 266.2439 14.79975019 32025
KUIPER-00114            
1 65151U 25171V   26062.37824151  .00005815  00000+0  79103-3 0  9992
2 65151  51.9005 203.5132 0001400 129.0123 231.0964 14.79940652 31702
